CUTE-1.7+APD II (CO-65) 
1 32785U 08021C   22252.72701779  .00001864  00000+0  19959-3 0  9993
2 32785  97.6660 220.9534 0011551 321.0104  39.0280 14.89828993779039
AAUSAT-II               
1 32788U 08021F   22252.94948436  .00003984  00000+0  34153-3 0  9991
2 32788  97.5390 235.3327 0010822 190.9429 169.1560 14.98030384781188
DELFI-C3 (DO-64)        
1 32789U 08021G   22252.65057269  .00012089  00000+0  64202-3 0  9999
2 32789  97.3358 275.9829 0010991  42.7234 317.4852 15.15406471784676
SEEDS II (CO-66)        
1 32791U 08021J   22252.83081446  .00002376  00000+0  23353-3 0  9996
2 32791  97.6194 226.4604 0010810 269.2936  90.7045 14.93026377779865
SWISSCUBE               
1 35932U 09051B   22252.57628378  .00000529  00000+0  12856-3 0  9996
2 35932  98.5585 110.8279 0008069 141.4242 218.7533 14.56948375688343
BEESAT-1                
1 35933U 09051C   22253.14882174  .00000461  00000+0  11341-3 0  9990
2 35933  98.5521 112.9858 0006116 149.1641 210.9916 14.56954852688581
ITUPSAT1                
1 35935U 09051E   22252.59975764  .00000424  00000+0  10730-3 0  9998
2 35935  98.5623 112.4558 0008286 157.1215 203.0352 14.56056634688122
TISAT 1                 
1 36799U 10035E   22253.16299591  .00002072  00000+0  20397-3 0  9993
2 36799  98.1735 106.9286 0011769 170.5284 189.6158 14.93207492660609
M-CUBED & EXP-1 PRIME   
1 37855U 11061F   22253.02092124  .00014988  00000+0  63504-3 0  9991
2 37855 101.7192  56.9959 0149817 168.8920 191.5666 15.13680714594499
AEROCUBE 4.5A           
1 38767U 12048K   22253.13337267  .00003067  00000+0  21986-3 0  9996
2 38767  64.6649 204.8155 0171319 239.4700 118.9409 14.95351680163442
AEROCUBE 4.5B           
1 38768U 12048L   22252.74197612  .00004548  00000+0  29049-3 0  9994
2 38768  64.6665 158.6334 0157248 234.9686 123.6591 15.00299698163794
STRAND-1                
1 39090U 13009E   22253.06850452  .00000175  00000+0  76068-4 0  9991
2 39090  98.4013  88.9857 0009598  26.3953 333.7720 14.35322494499556
BRITE-AUSTRIA           
1 39091U 13009F   22253.12422163  .00000098  00000+0  49017-4 0  9991
2 39091  98.4030  88.2211 0011111  31.7275 328.4578 14.35297217499583
SOMP                    
1 39134U 13015E   22252.65080173  .00015148  00000+0  50869-3 0  9992
2 39134  64.8613 145.1545 0035215 266.4567  93.2538 15.30453684519731
BEESAT-3                
1 39135U 13015F   22253.14355478  .00011785  00000+0  46372-3 0  9998
2 39135  64.8661 181.7054 0039166 271.5411  88.1233 15.25275279519450
BEESAT-2                
1 39136U 13015G   22253.18269510  .00010737  00000+0  44361-3 0  9996
2 39136  64.8746 190.2567 0021680 294.9205  64.9671 15.24197579519308
NEE-01 PEGASO           
1 39151U 13018B   22252.28847194  .00001126  00000+0  15169-3 0  9992
2 39151  97.9957 357.6914 0016352 348.1278  11.9547 14.81100263506084
ESTCUBE 1               
1 39161U 13021C   22252.92639040  .00000908  00000+0  14870-3 0  9992
2 39161  97.9032 327.9543 0009998 144.7171 215.4693 14.73078900501909
POPACS 1                
1 39268U 13055D   22253.03767477  .00013772  00000+0  34695-3 0  9996
2 39268  80.9984 148.3761 0560371 304.7418  50.2208 14.52998606467045
POPACS 2                
1 39269U 13055E   22252.20329235  .00009752  00000+0  26295-3 0  9991
2 39269  81.0116 208.6256 0643925 101.0884 266.3365 14.33933013462180
POPACS 3                
1 39270U 13055F   22252.93383636  .00004011  00000+0  12109-3 0  9990
2 39270  81.0110 242.2336 0685982 196.1342 161.6993 14.22594270461349
ZACUBE-1 (TSHEPISOSAT)  
1 39417U 13066B   22253.14328963  .00001499  00000+0  18722-3 0  9995
2 39417  97.6449 220.8646 0058800 125.8936 234.7756 14.82566437475677
WNISAT-1                
1 39423U 13066H   22253.10411144  .00000446  00000+0  97545-4 0  9994
2 39423  97.7405 128.3002 0173213 233.1890 125.3348 14.53560256466744
TRITON-1                
1 39427U 13066M   22253.06663391  .00001913  00000+0  30395-3 0  9995
2 39427  97.8142 185.1948 0111547 355.0573   4.9523 14.69152948471397
DELFI-N3XT              
1 39428U 13066N   22252.76660926  .00003244  00000+0  50058-3 0  9990
2 39428  97.8146 183.5158 0117290   9.0585 351.2699 14.69474224470910
GOMX-1                  
1 39430U 13066Q   22253.01026226  .00000969  00000+0  17994-3 0  9994
2 39430  97.8011 155.3592 0149689 137.8388 223.4451 14.60336736468639
CUBEBUG-2 (LO-74)       
1 39440U 13066AA  22253.19878102  .00001129  00000+0  15882-3 0  9995
2 39440  97.7333 207.2346 0077356 215.6792 143.9235 14.77229557473996
NEE-02 KRYSAOR          
1 39441U 13066AB  22252.66525905  .00000826  00000+0  12176-3 0  9993
2 39441  97.7441 203.8583 0079044 231.8334 127.5737 14.75902715472457
FUNCUBE-1 (AO-73)       
1 39444U 13066AE  22252.89467773  .00001891  00000+0  22843-3 0  9994
2 39444  97.6323 223.0453 0057862 114.6374 246.0882 14.83692108474635
UWE-3                   
1 39446U 13066AG  22252.66850213  .00001211  00000+0  16151-3 0  9997
2 39446  97.6936 213.1383 0068436 173.3796 186.8337 14.79783673472916
AEROCUBE 5A             
1 39465U 13072D   22253.09914758  .00054838  00000+0  27851-2 0  9999
2 39465 120.4840 269.7058 0185483  10.6179 349.8731 15.02722454162318
AEROCUBE 5B             
1 39466U 13072E   22253.17255373  .00100289  00000+0  25247-2 0  9999
2 39466 120.4548   8.3587 0114788  29.1805 331.5629 15.32671105163649
BRITE-CA1 (TORONTO)     
1 40020U 14033L   22252.98987585  .00000388  00000+0  73770-4 0  9995
2 40020  97.7892  47.6974 0086551 354.8375   5.1929 14.67123293440166
DUCHIFAT-1              
1 40021U 14033M   22253.11602391  .00002666  00000+0  25992-3 0  9994
2 40021  98.0183 204.9054 0013699 117.2505 243.0112 14.93297052447337
NANOSATC-BR1            
1 40024U 14033Q   22253.12131763  .00002914  00000+0  29233-3 0  9996
2 40024  97.9898 197.8252 0013134 123.6410 236.6064 14.92074890447124
QB50P1                  
1 40025U 14033R   22252.29911032  .00002392  00000+0  24882-3 0  9994
2 40025  97.9625 190.3790 0013125 135.5724 224.6549 14.90787514446258
QB50P2                  
1 40032U 14033Y   22252.76034924  .00002337  00000+0  24673-3 0  9997
2 40032  97.9386 185.9012 0012629 131.8573 228.3724 14.90195094446179
PERSEUS-M2              
1 40037U 14033AD  22253.01636857  .00000789  00000+0  93697-4 0  9996
2 40037  97.8935 174.7583 0014739 155.0085 205.1847 14.87218086446196
PERSEUS-M1              
1 40039U 14033AF  22252.76424799  .00000765  00000+0  91870-4 0  9994
2 40039  97.8829 172.1127 0014599 154.9702 205.2225 14.86823720445538
POLYITAN-1              
1 40042U 14033AJ  22252.78038381  .00003090  00000+0  31878-3 0  9993
2 40042  97.9735 192.1734 0015464 127.0967 233.1666 14.90870817446210
TIGRISAT                
1 40043U 14033AK  22253.08861582  .00000949  00000+0  14415-3 0  9993
2 40043  97.6575  77.7951 0057801 241.6748 117.8624 14.75139285442409
AEROCUBE 6A             
1 40045U 14033AM  22253.11405111  .00000950  00000+0  14001-3 0  9994
2 40045  97.6640  86.8508 0055472 228.7600 130.8824 14.76532311442515
AEROCUBE 6B             
1 40046U 14033AN  22253.06941889  .00001849  00000+0  26330-3 0  9992
2 40046  97.6552  85.2318 0054461 226.7757 132.8900 14.76967042442653
UKUBE-1                 
1 40074U 14037F   22253.15408463  .00002084  00000+0  24744-3 0  9992
2 40074  98.3694 138.2150 0005232  26.4246 333.7224 14.85642970442642
BRITE-PL2 (HEWELIUSZ)   
1 40119U 14049B   22252.49173925  .00000868  00000+0  10725-3 0  9995
2 40119  97.8844 347.2644 0016405 331.4323  28.5992 14.85263586436480
FIREBIRD 4              
1 40378U 15003C   22252.96819186  .00018439  00000+0  51648-3 0  9993
2 40378  99.0872 137.0621 0097072  97.8786 263.3482 15.32018806421367
GRIFEX                  
1 40379U 15003D   22253.09152485  .00010135  00000+0  34660-3 0  9991
2 40379  99.0999 122.1659 0113192 142.5585 218.3602 15.24533819420529
CP10 (EXOCUBE)          
1 40380U 15003E   22252.86393021  .00007348  00000+0  27695-3 0  9992
2 40380  99.1109 114.2832 0121397 168.8334 191.5635 15.20788922419999
TIANWANG 1A (TW-1A)     
1 40928U 15051D   22253.24739878  .00060733  00000+0  57783-3 0  9998
2 40928  97.0334 275.5227 0008468  77.8857 348.7075 15.66611571391487
EXACTVIEW 9             
1 40936U 15052G   22252.50198019  .00001608  00000+0  13279-3 0  9990
2 40936   6.0034 293.6421 0010896 267.2273  92.6607 14.77276929375668
AEROCUBE 5C             
1 40965U 15058B   22253.15995838  .00000805  00000+0  10819-3 0  9999
2 40965  64.7771 194.2754 0182022 172.6305 187.7545 14.75828987161463
AEROCUBE 7              
1 40966U 15058C   22253.19305335  .00001045  00000+0  13351-3 0  9992
2 40966  64.7771 191.1403 0179906 172.2542 188.1412 14.76431286161491
ATHENOXAT 1             
1 41168U 15077C   22253.10508981  .00016866  00000+0  66641-3 0  9998
2 41168  14.9860 182.1481 0009875 348.1903 128.6566 15.22735088373224
GALASSIA                
1 41170U 15077E   22252.13574145  .00011561  00000+0  46187-3 0  9998
2 41170  14.9874 180.9355 0010443   3.8249 356.2152 15.21674819372984
VELOX-II                
1 41171U 15077F   22252.39100534  .00008925  00000+0  40571-3 0  9995
2 41171  14.9904 256.8296 0007707 200.1638 159.8379 15.16739245372379
HORYU-4                 
1 41340U 16012D   22252.88452430  .00003379  00000+0  23394-3 0  9994
2 41340  31.0040 179.7462 0013266 319.8550  40.1106 15.03719700360449
E-ST@R-II               
1 41459U 16025D   22253.06873506  .00009084  00000+0  38163-3 0  9990
2 41459  98.1932  64.6296 0140417 342.2612  17.3703 15.15087369350304
AAUSAT 4                
1 41460U 16025E   22253.02372880  .00015160  00000+0  54857-3 0  9997
2 41460  98.1824  71.6120 0119045 315.5454  43.6004 15.22000226350794
BEESAT-4                
1 41619U 16040W   22253.08667284  .00015037  00000+0  47204-3 0  9992
2 41619  97.2092 301.5333 0009778 163.6925 196.4634 15.33067134333682
